{"type": "FeatureCollection", "features": [ {"type": "Feature", "properties": {"norad_id": 36173, "name": "FENGYUN 1C DEB", "group": "fengyun-1c-debris", "lat": 81.53715380155147, "lon": -134.54406722715407, "alt_km": 826.1964136956267, "timestamp": "2025-12-10T04:57:29.906295+00:00", "meta": {"OBJECT_NAME": "FENGYUN 1C DEB", "OBJECT_ID": "1999-025DSW", "EPOCH": "2025-11-27T03:07:28.371072", "MEAN_MOTION": 14.25142788, "ECCENTRICITY": 0.01460397, "INCLINATION": 98.2105, "RA_OF_ASC_NODE": 289.2336, "ARG_OF_PERICENTER": 231.4906, "MEAN_ANOMALY": 127.3105, "EPHEMERIS_TYPE": 0, "CLASSIFICATION_TYPE": "U", "NORAD_CAT_ID": 36173, "ELEMENT_SET_NO": 999, "REV_AT_EPOCH": 58868, "BSTAR": 0.00039734703, "MEAN_MOTION_DOT": 1e-05, "MEAN_MOTION_DDOT": 0}, "tle": {"line1": "1 36173U 99025DSW 25331.13018948  .00001000  00000+0  39735-3 0  9993", "line2": "2 36173  98.2105 289.2336 0146039 231.4906 127.3105 14.25142788588684"}}, "geometry": {"type": "Point", "coordinates": [-134.54406722715407, 81.53715380155147]}}, {"type": "Feature", "properties": {"norad_id": 36180, "name": "FENGYUN 1C DEB", "group": "fengyun-1c-debris", "lat": 68.61216553841709, "lon": -109.74163394487287, "alt_km": 765.104322847109, "timestamp": "2025-12-10T04:57:29.906305+00:00", "meta": {"OBJECT_NAME": "FENGYUN 1C DEB", "OBJECT_ID": "1999-025DTD", "EPOCH": "2025-12-05T21:21:22.276224", "MEAN_MOTION": 14.20680074, "ECCENTRICITY": 0.02106275, "INCLINATION": 98.4572, "RA_OF_ASC_NODE": 43.7979, "ARG_OF_PERICENTER": 50.8055, "MEAN_ANOMALY": 311.1621, "EPHEMERIS_TYPE": 0, "CLASSIFICATION_TYPE": "U", "NORAD_CAT_ID": 36180, "ELEMENT_SET_NO": 999, "REV_AT_EPOCH": 70486, "BSTAR": 0.00091841135, "MEAN_MOTION_DOT": 2.432e-05, "MEAN_MOTION_DDOT": 0}, "tle": {"line1": "1 36180U 99025DTD 25339.88984116  .00002432  00000+0  91841-3 0  9996", "line2": "2 36180  98.4572  43.7979 0210627  50.8055 311.1621 14.20680074704867"}}, "geometry": {"type": "Point", "coordinates": [-109.74163394487287, 68.61216553841709]}}, {"type": "Feature", "properties": {"norad_id": 36182, "name": "FENGYUN 1C DEB", "group": "fengyun-1c-debris", "lat": -37.44629186912349, "lon": 84.58813193096537, "alt_km": 793.4136391145576, "timestamp": "2025-12-10T04:57:29.906316+00:00", "meta": {"OBJECT_NAME": "FENGYUN 1C DEB", "OBJECT_ID": "1999-025DTF", "EPOCH": "2025-12-09T12:53:00.896352", "MEAN_MOTION": 14.3467895, "ECCENTRICITY": 0.0021656, "INCLINATION": 99.088, "RA_OF_ASC_NODE": 270.9251, "ARG_OF_PERICENTER": 84.6861, "MEAN_ANOMALY": 275.6792, "EPHEMERIS_TYPE": 0, "CLASSIFICATION_TYPE": "U", "NORAD_CAT_ID": 36182, "ELEMENT_SET_NO": 999, "REV_AT_EPOCH": 87911, "BSTAR": 0.0023397, "MEAN_MOTION_DOT": 6.596e-05, "MEAN_MOTION_DDOT": 0}, "tle": {"line1": "1 36182U 99025DTF 25343.53681593  .00006596  00000+0  23397-2 0  9993", "line2": "2 36182  99.0880 270.9251 0021656  84.6861 275.6792 14.34678950879116"}}, "geometry": {"type": "Point", "coordinates": [84.58813193096537, -37.44629186912349]}}, {"type": "Feature", "properties": {"norad_id": 36186, "name": "FENGYUN 1C DEB", "group": "fengyun-1c-debris", "lat": 72.73104242279211, "lon": 57.696514316002656, "alt_km": 532.705946540329, "timestamp": "2025-12-10T04:57:29.906326+00:00", "meta": {"OBJECT_NAME": "FENGYUN 1C DEB", "OBJECT_ID": "1999-025DTK", "EPOCH": "2025-12-06T21:01:26.135616", "MEAN_MOTION": 15.09149878, "ECCENTRICITY": 0.00147295, "INCLINATION": 98.9889, "RA_OF_ASC_NODE": 203.1836, "ARG_OF_PERICENTER": 349.9169, "MEAN_ANOMALY": 20.7197, "EPHEMERIS_TYPE": 0, "CLASSIFICATION_TYPE": "U", "NORAD_CAT_ID": 36186, "ELEMENT_SET_NO": 999, "REV_AT_EPOCH": 61482, "BSTAR": 0.015546812, "MEAN_MOTION_DOT": 0.00256087, "MEAN_MOTION_DDOT": 0}, "tle": {"line1": "1 36186U 99025DTK 25340.87599694  .00256087  00000+0  15547-1 0  9990", "line2": "2 36186  98.9889 203.1836 0014729 349.9169  20.7197 15.09149878614823"}}, "geometry": {"type": "Point", "coordinates": [57.696514316002656, 72.73104242279211]}}, {"type": "Feature", "properties": {"norad_id": 36188, "name": "FENGYUN 1C DEB", "group": "fengyun-1c-debris", "lat": 46.649831785996625, "lon": 75.32738720028674, "alt_km": 689.68590606823, "timestamp": "2025-12-10T04:57:29.906336+00:00", "meta": {"OBJECT_NAME": "FENGYUN 1C DEB", "OBJECT_ID": "1999-025DTM", "EPOCH": "2025-12-06T00:26:45.096864", "MEAN_MOTION": 14.6043913, "ECCENTRICITY": 0.0047401, "INCLINATION": 98.5867, "RA_OF_ASC_NODE": 80.1988, "ARG_OF_PERICENTER": 325.7511, "MEAN_ANOMALY": 34.0633, "EPHEMERIS_TYPE": 0, "CLASSIFICATION_TYPE": "U", "NORAD_CAT_ID": 36188, "ELEMENT_SET_NO": 999, "REV_AT_EPOCH": 87954, "BSTAR": 0.0036772102, "MEAN_MOTION_DOT": 0.0001809, "MEAN_MOTION_DDOT": 0}, "tle": {"line1": "1 36188U 99025DTM 25340.01857751  .00018090  00000+0  36772-2 0  9993", "line2": "2 36188  98.5867  80.1988 0047401 325.7511  34.0633 14.60439130879548"}}, "geometry": {"type": "Point", "coordinates": [75.32738720028674, 46.649831785996625]}}, {"type": "Feature", "properties": {"norad_id": 36198, "name": "FENGYUN 1C DEB", "group": "fengyun-1c-debris", "lat": -68.4260093143717, "lon": 171.09826029654937, "alt_km": 916.4323300123215, "timestamp": "2025-12-10T04:57:29.906348+00:00", "meta": {"OBJECT_NAME": "FENGYUN 1C DEB", "OBJECT_ID": "1999-025DTX", "EPOCH": "2025-12-06T12:47:36.841920", "MEAN_MOTION": 14.07854185, "ECCENTRICITY": 0.00971183, "INCLINATION": 98.6232, "RA_OF_ASC_NODE": 10.1569, "ARG_OF_PERICENTER": 132.8086, "MEAN_ANOMALY": 228.1301, "EPHEMERIS_TYPE": 0, "CLASSIFICATION_TYPE": "U", "NORAD_CAT_ID": 36198, "ELEMENT_SET_NO": 999, "REV_AT_EPOCH": 63500, "BSTAR": 0.002549244, "MEAN_MOTION_DOT": 4.475e-05, "MEAN_MOTION_DDOT": 0}, "tle": {"line1": "1 36198U 99025DTX 25340.53306530  .00004475  00000+0  25492-2 0  9994", "line2": "2 36198  98.6232  10.1569 0097118 132.8086 228.1301 14.07854185635009"}}, "geometry": {"type": "Point", "coordinates": [171.09826029654937, -68.4260093143717]}}, {"type": "Feature", "properties": {"norad_id": 36199, "name": "FENGYUN 1C DEB", "group": "fengyun-1c-debris", "lat": -78.260551466108, "lon": 140.91113713984407, "alt_km": 866.4652669278712, "timestamp": "2025-12-10T04:57:29.906358+00:00", "meta": {"OBJECT_NAME": "FENGYUN 1C DEB", "OBJECT_ID": "1999-025DTY", "EPOCH": "2025-12-09T19:20:37.527360", "MEAN_MOTION": 14.2964382, "ECCENTRICITY": 0.0092978, "INCLINATION": 98.2902, "RA_OF_ASC_NODE": 5.0872, "ARG_OF_PERICENTER": 76.0734, "MEAN_ANOMALY": 285.0769, "EPHEMERIS_TYPE": 0, "CLASSIFICATION_TYPE": "U", "NORAD_CAT_ID": 36199, "ELEMENT_SET_NO": 999, "REV_AT_EPOCH": 64938, "BSTAR": 0.00042592, "MEAN_MOTION_DOT": 1.103e-05, "MEAN_MOTION_DDOT": 0}, "tle": {"line1": "1 36199U 99025DTY 25343.80598990  .00001103  00000+0  42592-3 0  9997", "line2": "2 36199  98.2902   5.0872 0092978  76.0734 285.0769 14.29643820649380"}}, "geometry": {"type": "Point", "coordinates": [140.91113713984407, -78.260551466108]}}, {"type": "Feature", "properties": {"norad_id": 36200, "name": "FENGYUN 1C DEB", "group": "fengyun-1c-debris", "lat": 34.724534611219504, "lon": -115.57844886922871, "alt_km": 710.1048085204575, "timestamp": "2025-12-10T04:57:29.906369+00:00", "meta": {"OBJECT_NAME": "FENGYUN 1C DEB", "OBJECT_ID": "1999-025DTZ", "EPOCH": "2025-12-07T03:51:08.362944", "MEAN_MOTION": 14.58359228, "ECCENTRICITY": 0.00334809, "INCLINATION": 99.3875, "RA_OF_ASC_NODE": 54.4014, "ARG_OF_PERICENTER": 25.778, "MEAN_ANOMALY": 334.5075, "EPHEMERIS_TYPE": 0, "CLASSIFICATION_TYPE": "U", "NORAD_CAT_ID": 36200, "ELEMENT_SET_NO": 999, "REV_AT_EPOCH": 73279, "BSTAR": 0.0062871133, "MEAN_MOTION_DOT": 0.00029404, "MEAN_MOTION_DDOT": 0}, "tle": {"line1": "1 36200U 99025DTZ 25341.16051346  .00029404  00000+0  62871-2 0  9991", "line2": "2 36200  99.3875  54.4014 0033480  25.7780 334.5075 14.58359228732791"}}, "geometry": {"type": "Point", "coordinates": [-115.57844886922871, 34.724534611219504]}}, {"type": "Feature", "properties": {"norad_id": 36203, "name": "FENGYUN 1C DEB", "group": "fengyun-1c-debris", "lat": -62.884410678555746, "lon": -54.111553035782705, "alt_km": 685.7863529206188, "timestamp": "2025-12-10T04:57:29.906379+00:00", "meta": {"OBJECT_NAME": "FENGYUN 1C DEB", "OBJECT_ID": "1999-025DUC", "EPOCH": "2025-12-08T14:16:01.371648", "MEAN_MOTION": 14.78297245, "ECCENTRICITY": 0.0083233, "INCLINATION": 99.0964, "RA_OF_ASC_NODE": 285.836, "ARG_OF_PERICENTER": 161.4127, "MEAN_ANOMALY": 199.0151, "EPHEMERIS_TYPE": 0, "CLASSIFICATION_TYPE": "U", "NORAD_CAT_ID": 36203, "ELEMENT_SET_NO": 999, "REV_AT_EPOCH": 63368, "BSTAR": 0.0016876, "MEAN_MOTION_DOT": 0.00012947, "MEAN_MOTION_DDOT": 0}, "tle": {"line1": "1 36203U 99025DUC 25342.59446032  .00012947  00000+0  16876-2 0  9990", "line2": "2 36203  99.0964 285.8360 0083233 161.4127 199.0151 14.78297245633687"}}, "geometry": {"type": "Point", "coordinates": [-54.111553035782705, -62.884410678555746]}}, {"type": "Feature", "properties": {"norad_id": 36204, "name": "FENGYUN 1C DEB", "group": "fengyun-1c-debris", "lat": 71.64151081542602, "lon": -69.34744599296933, "alt_km": 763.3047068478854, "timestamp": "2025-12-10T04:57:29.906389+00:00", "meta": {"OBJECT_NAME": "FENGYUN 1C DEB", "OBJECT_ID": "1999-025DUD", "EPOCH": "2025-12-09T13:24:01.015776", "MEAN_MOTION": 14.34542102, "ECCENTRICITY": 0.002004, "INCLINATION": 99.2908, "RA_OF_ASC_NODE": 80.3994, "ARG_OF_PERICENTER": 171.7637, "MEAN_ANOMALY": 188.3878, "EPHEMERIS_TYPE": 0, "CLASSIFICATION_TYPE": "U", "NORAD_CAT_ID": 36204, "ELEMENT_SET_NO": 999, "REV_AT_EPOCH": 94382, "BSTAR": 0.0020121, "MEAN_MOTION_DOT": 5.645e-05, "MEAN_MOTION_DDOT": 0}, "tle": {"line1": "1 36204U 99025DUD 25343.55834509  .00005645  00000+0  20121-2 0  9993", "line2": "2 36204  99.2908  80.3994 0020040 171.7637 188.3878 14.34542102943820"}}, "geometry": {"type": "Point", "coordinates": [-69.34744599296933, 71.64151081542602]}}]}